SAUDISAT 1C             
1 27607U 02058C   16109.64254032  .00000223  00000-0  52484-4 0  9994
2 27607  64.5560 342.7699 0073634 229.3783 130.0900 14.75125487716480
SAUDISAT 2              
1 28371U 04025F   16109.89953809  .00000125  00000-0  39958-4 0  9996
2 28371  98.0753  71.7288 0024809 211.5612 148.4102 14.54173487626175
UNISAT 3                
1 28373U 04025H   16109.08122972  .00000214  00000-0  71530-4 0  9999
2 28373  98.2908  53.8765 0070359  61.2138 299.6097 14.45278805622499
SAUDISAT 3              
1 31118U 07012B   16109.86275062  .00000054  00000-0  16906-4 0  9992
2 31118  97.7203 120.4958 0014908 182.7899 177.3231 14.68990109482712
